EUTELSAT 21B            
1 38992U 12062B   25215.55033164  .00000140  00000+0  00000+0 0  9997
2 38992   0.0686  15.4254 0002876 116.3906  40.2502  1.00272933 46643
EUTELSAT 70B            
1 39020U 12069A   25215.56003837 -.00000034  00000+0  00000+0 0  9995
2 39020   0.0643  17.3769 0003482 117.3870  89.7067  1.00271900 46328
EUTELSAT 117 WEST A     
1 39122U 13012A   25215.49001498 -.00000003  00000+0  00000+0 0  9996
2 39122   0.0436 273.0571 0002976 219.9492 238.9001  1.00271441 45245
EUTELSAT 7B             
1 39163U 13022A   25215.54729830  .00000058  00000+0  00000+0 0  9994
2 39163   0.0711 339.6863 0002924  78.0239  98.6624  1.00271749 44775
EXPRESS-AT1             
1 39612U 14010A   25215.55709168  .00000088  00000+0  00000+0 0  9997
2 39612   0.0061  50.7653 0000708 340.6615 177.4931  1.00271819 41631
EXPRESS-AT2             
1 39613U 14010B   25215.78794171 -.00000269  00000+0  00000+0 0  9993
2 39613   0.0107 327.3442 0000938 167.4065 241.3583  1.00288468 41701
EUTELSAT 3B             
1 39773U 14030A   25215.33247382  .00000030  00000+0  00000+0 0  9995
2 39773   0.0628  17.0326 0004267 118.3935 299.4999  1.00272836 40885
EUTELSAT 115 WEST B     
1 40425U 15010B   25215.66601882 -.00000015  00000+0  00000+0 0  9999
2 40425   0.0047  22.9750 0000371 251.0555 163.3081  1.00267875 38253
